OBJECT_NAME,OBJECT_ID,EPOCH,MEAN_MOTION,ECCENTRICITY,INCLINATION,RA_OF_ASC_NODE,ARG_OF_PERICENTER,MEAN_ANOMALY,EPHEMERIS_TYPE,CLASSIFICATION_TYPE,NORAD_CAT_ID,ELEMENT_SET_NO,REV_AT_EPOCH,BSTAR,MEAN_MOTION_DOT,MEAN_MOTION_DDOT
COSMOS 2058,1990-010A,2026-07-17T04:17:41.454528,15.12163192,.00080614,82.4674,279.7754,241.4725,118.5695,0,U,20465,999,96180,.10282797E-3,.1803E-4,0
SL-14 R/B,1990-010B,2026-07-17T05:56:06.828000,14.83663713,.00184932,82.5036,145.7157,230.0309,129.9283,0,U,20466,999,94769,.19218374E-4,.183E-5,0
SL-14 R/B,1990-018B,2026-07-17T04:29:45.762144,14.82234781,.00168761,82.5216,102.0682,30.6202,329.5993,0,U,20511,999,94176,.22025754E-4,.2E-5,0
HST,1990-037B,2026-07-17T06:14:47.549184,15.31073496,.00021865,28.4720,234.9835,123.3656,236.7149,0,U,20580,999,79318,.97528885E-4,.3243E-4,0
SL-16 R/B,1990-046B,2026-07-16T23:48:24.813504,14.15025808,.00123596,70.9988,26.3499,111.1432,249.1013,0,U,20625,999,86668,.170397E-3,.283E-5,0
COSMOS 2084,1990-055A,2026-07-16T14:32:05.277696,15.06226547,.0008265,62.7881,255.6726,319.5810,40.4676,0,U,20663,999,95573,.64586E-4,.748E-5,0
SL-6 R/B(2),1990-055D,2026-07-17T04:00:39.282912,15.04092603,.00454322,62.7806,173.3496,9.2636,350.9291,0,U,20666,999,95766,.83167332E-4,.972E-5,0
SL-8 R/B,1990-078B,2026-07-17T05:14:57.109920,14.93610839,.03432283,82.9037,134.4790,296.6543,59.9907,0,U,20775,999,82860,.22787927E-3,.8043E-4,0
SL-8 R/B,1991-006B,2026-07-17T03:44:56.359968,13.77509477,.00233273,82.9406,73.7368,35.2767,133.0598,0,U,21088,999,78189,.67135945E-4,.82E-6,0
OKEAN-3,1991-039A,2026-07-17T07:34:57.489024,15.05441743,.00125865,82.5145,211.1613,246.5301,113.4604,0,U,21397,999,88453,.12135258E-3,.1772E-4,0
COSMOS 2151,1991-042A,2026-07-17T08:03:19.419552,15.00516457,.00117566,82.4982,318.5853,348.1519,11.9426,0,U,21422,999,88263,.69042293E-4,.898E-5,0
SL-14 R/B,1991-042B,2026-07-17T03:11:09.404736,14.81918646,.00171632,82.4931,98.8146,170.5729,189.5811,0,U,21423,999,87224,.19839256E-4,.181E-5,0
ERS-1,1991-050A,2026-07-17T01:16:14.261376,14.39534196,.00320231,98.7795,219.4803,176.3094,183.8335,0,U,21574,999,83434,.71316331E-4,.177E-5,0
ARIANE 40 R/B,1991-050F,2026-07-17T01:46:52.290912,14.42972467,.00040792,98.1862,245.3245,57.3214,302.8370,0,U,21610,999,83765,.44890154E-4,.109E-5,0
INTERCOSMOS 25,1991-086A,2026-07-17T03:45:45.745344,12.12241021,.14846769,82.6004,231.6740,197.6921,156.6658,0,U,21819,999,51237,.15423351E-4,.94E-6,0
SL-8 R/B,1992-008B,2026-07-17T07:47:08.237760,13.75984124,.00357732,82.9273,171.3804,130.8312,35.4187,0,U,21876,999,72724,.82349265E-4,.96E-6,0
SL-8 R/B,1992-020B,2026-07-17T01:03:18.072288,13.75550061,.00278793,82.9280,57.6766,298.1110,228.6449,0,U,21938,999,71891,-.16837312E-4,-.1E-7,0
USA 81,1992-023A,2026-07-17T00:48:17.208000,14.32405236,.00019072,85.0050,56.7770,65.6219,294.5172,0,U,21949,999,11330,.27915036E-4,.95E-6,0
COSMOS 2219,1992-076A,2026-07-16T23:18:11.693088,14.14108060,.00183676,71.0610,107.8115,354.7893,5.3035,0,U,22219,999,73665,-.10027348E-3,-.238E-5,0
SL-16 R/B,1992-076B,2026-07-17T05:46:49.136736,14.16877977,.00150308,71.0003,275.4723,259.5721,133.9932,0,U,22220,999,74018,.36660435E-4,.26E-6,0
COSMOS 2221,1992-080A,2026-07-17T07:02:31.852608,14.96607157,.00158306,82.5047,154.9203,113.8330,246.4553,0,U,22236,999,80017,.70662979E-4,.833E-5,0
SL-16 R/B,1992-093B,2026-07-17T03:15:15.033024,14.15465033,.00022087,71.0215,92.5220,129.3844,230.7475,0,U,22285,999,73147,-.10802004E-3,-.259E-5,0
COSMOS 2228,1992-094A,2026-07-17T05:17:41.453088,14.97678978,.00164604,82.5188,113.2754,221.8714,138.1251,0,U,22286,999,79544,.67284613E-4,.816E-5,0
SL-16 R/B,1993-016B,2026-07-17T06:14:40.889472,14.15313778,.0008758,71.0086,303.0435,134.2775,225.9068,0,U,22566,999,72050,.16631897E-3,.276E-5,0
COSMOS 2242,1993-024A,2026-07-17T06:15:25.363872,14.96988204,.00147819,82.5199,142.7708,225.0512,134.9513,0,U,22626,999,79977,.73872476E-4,.877E-5,0
SL-16 R/B,1993-059B,2026-07-17T04:54:02.708928,14.17249361,.00167598,70.9901,98.0042,5.5668,354.5639,0,U,22803,999,69788,.24434019E-4,.1E-7,0
ARIANE 40 R/B,1993-061H,2026-07-17T03:52:39.635904,14.32918978,.00095188,98.4805,264.3939,259.2192,100.7921,0,U,22830,999,71264,.40553867E-4,.68E-6,0
COSMOS 2278,1994-023A,2026-07-17T03:54:13.421376,14.14393589,.00095305,71.0520,264.2097,202.6167,157.4537,0,U,23087,999,66311,.65329736E-4,.78E-6,0
SL-16 R/B,1994-023B,2026-07-17T07:01:04.137600,14.15025369,.00013667,70.9986,158.7073,120.0226,240.1033,0,U,23088,999,66442,.13532363E-3,.214E-5,0
SL-16 R/B,1994-074B,2026-07-17T00:49:31.711584,14.79525266,.00073063,97.6986,223.5104,148.8673,240.9902,0,U,23343,999,70637,.30782802E-4,.181E-5,0
